{"type": "FeatureCollection", "features": [{"type": "Feature", "geometry": {"type": "Polygon", "coordinates": [[[134.441673, 34.11431], [134.397381, 34.087232], [134.457829, 34.116508], [134.441673, 34.11431]]]}, "properties": {"A27_001": "36405", "A27_002": "上板町立", "A27_003": "B136240500046", "A27_004": "高志小学校", "A27_005": "板野郡上板町高瀬字天目一1108"}}, {"type": "Feature", "geometry": {"type": "Polygon", "coordinates": [[[134.385174, 34.117111], [134.405623, 34.107544], [134.418972, 34.119436], [134.374075, 34.14884], [134.384577, 34.118307], [134.385174, 34.117111]]]}, "properties": {"A27_001": "36405", "A27_002": "上板町立", "A27_003": "B136240500037", "A27_004": "松島小学校", "A27_005": "板野郡上板町鍛冶屋原字北原20"}}, {"type": "Feature", "geometry": {"type": "Polygon", "coordinates": [[[134.417195, 34.114124], [134.441673, 34.11431], [134.417677, 34.116639], [134.417195, 34.114124]]]}, "properties": {"A27_001": "36405", "A27_002": "上板町立", "A27_003": "B136240500028", "A27_004": "東光小学校", "A27_005": "板野郡上板町西分字東光8"}}, {"type": "Feature", "geometry": {"type": "Polygon", "coordinates": [[[134.433548, 34.123465], [134.411442, 34.161496], [134.393294, 34.163609], [134.388946, 34.139609], [134.430885, 34.123835], [134.433548, 34.123465]]]}, "properties": {"A27_001": "36405", "A27_002": "上板町立", "A27_003": "B136240500019", "A27_004": "神宅小学校", "A27_005": "板野郡上板町神宅字喜来135"}}, {"type": "Feature", "geometry": {"type": "Polygon", "coordinates": [[[133.787294, 33.852722], [133.82272, 33.858411], [133.785993, 33.85524], [133.787294, 33.852722]]]}, "properties": {"A27_001": "36208", "A27_002": "三好市立", "A27_003": "B136220800170", "A27_004": "吾橋小学校", "A27_005": "三好市西祖谷山村下吾橋303-2"}}, {"type": "Feature", "geometry": {"type": "Polygon", "coordinates": [[[133.937119, 33.973482], [133.903744, 33.966618], [133.896896, 33.94359], [133.861762, 33.918194], [133.818713, 33.91713], [133.816732, 33.946176], [133.798589, 33.911964], [133.810222, 33.904572], [133.753783, 33.902869], [133.767698, 33.874922], [133.796154, 33.877601], [133.82272, 33.858411], [133.787294, 33.852722], [133.78858, 33.836244], [133.828556, 33.844756], [133.867412, 33.904879], [133.923415, 33.915432], [133.937819, 33.969316], [133.937119, 33.973482]]]}, "properties": {"A27_001": "36208", "A27_002": "三好市立", "A27_003": "B136220800161", "A27_004": "櫟生小学校", "A27_005": "三好市西祖谷山村一宇262-1"}}, {"type": "Feature", "geometry": {"type": "Polygon", "coordinates": [[[133.828556, 33.844756], [133.853658, 33.834572], [133.872359, 33.806193], [133.91339, 33.791181], [133.947474, 33.803744], [133.959783, 33.83466], [133.98515, 33.840785], [133.99553, 33.822234], [134.012647, 33.82183], [134.095978, 33.854984], [134.089935, 33.874232], [134.048658, 33.870945], [134.044899, 33.89709], [133.975086, 33.925045], [133.972229, 33.960242], [133.94468, 33.97578], [133.930063, 33.962353], [133.926252, 33.918073], [133.865645, 33.903837], [133.849153, 33.89136], [133.850086, 33.864239], [133.826612, 33.845618], [133.828556, 33.844756]]]}, "properties": {"A27_001": "36208", "A27_002": "三好市立", "A27_003": "B136220800152", "A27_004": "東祖谷小学校", "A27_005": "三好市東祖谷下瀬12-1"}}, {"type": "Feature", "geometry": {"type": "Polygon", "coordinates": [[[133.863074, 34.035], [133.846132, 33.994544], [133.859755, 34.028796], [133.863074, 34.035]]]}, "properties": {"A27_001": "36208", "A27_002": "三好市立", "A27_003": "B136220800134", "A27_004": "西井川小学校", "A27_005": "三好市井川町西井川734-3"}}, {"type": "Feature", "geometry": {"type": "Polygon", "coordinates": [[[133.918102, 33.976921], [133.893861, 34.034997], [133.863074, 34.035], [133.872519, 33.966115], [133.892664, 33.956798], [133.917231, 33.975127], [133.918102, 33.976921]]]}, "properties": {"A27_001": "36208", "A27_002": "三好市立", "A27_003": "B136220800125", "A27_004": "辻小学校", "A27_005": "三好市井川町辻53-1"}}, {"type": "Feature", "geometry": {"type": "Polygon", "coordinates": [[[134.452904, 34.08653], [134.405637, 34.091466], [134.450124, 34.087133], [134.452904, 34.08653]]]}, "properties": {"A27_001": "36341", "A27_002": "石井町立", "A27_003": "B136234100061", "A27_004": "藍畑小学校", "A27_005": "名西郡石井町藍畑字東覚円670"}}, {"type": "Feature", "geometry": {"type": "Polygon", "coordinates": [[[134.452904, 34.08653], [134.427197, 34.081313], [134.453444, 34.086556], [134.452904, 34.08653]]]}, "properties": {"A27_001": "36341", "A27_002": "石井町立", "A27_003": "B136234100052", "A27_004": "高川原小学校", "A27_005": "名西郡石井町高川原字高川原1167"}}, {"type": "Feature", "geometry": {"type": "Polygon", "coordinates": [[[134.397381, 34.087232], [134.437609, 34.089811], [134.405637, 34.091466], [134.397381, 34.087232]]]}, "properties": {"A27_001": "36341", "A27_002": "石井町立", "A27_003": "B136234100043", "A27_004": "高原小学校", "A27_005": "名西郡石井町高原字東高原251"}}, {"type": "Feature", "geometry": {"type": "Polygon", "coordinates": [[[134.401888, 34.076301], [134.427119, 34.058001], [134.401742, 34.077446], [134.401888, 34.076301]]]}, "properties": {"A27_001": "36341", "A27_002": "石井町立", "A27_003": "B136234100034", "A27_004": "浦庄小学校", "A27_005": "名西郡石井町浦庄字下浦475-1"}}, {"type": "Feature", "geometry": {"type": "Polygon", "coordinates": [[[134.467783, 34.061911], [134.464306, 34.072094], [134.467719, 34.061895], [134.467783, 34.061911]]]}, "properties": {"A27_001": "36341", "A27_002": "石井町立", "A27_003": "B136234100025", "A27_004": "石井小学校尼寺分校", "A27_005": "名西郡石井町石井字尼寺71"}}, {"type": "Feature", "geometry": {"type": "Polygon", "coordinates": [[[134.460132, 34.059868], [134.46454, 34.074175], [134.432819, 34.077592], [134.423212, 34.056181], [134.459534, 34.059199], [134.460132, 34.059868]]]}, "properties": {"A27_001": "36341", "A27_002": "石井町立", "A27_003": "B136234100016", "A27_004": "石井小学校", "A27_005": "名西郡石井町石井字石井1184-1"}}, {"type": "Feature", "geometry": {"type": "Polygon", "coordinates": [[[134.269254, 34.044009], [134.22565, 34.055563], [134.231979, 34.067947], [134.186324, 34.063551], [134.195805, 33.989114], [134.251421, 33.980522], [134.298932, 34.006481], [134.325129, 34.002833], [134.335405, 34.026601], [134.321683, 34.040903], [134.272025, 34.042719], [134.269254, 34.044009]]]}, "properties": {"A27_001": "36205", "A27_002": "吉野川市立", "A27_003": "B136220500119", "A27_004": "高越小学校", "A27_005": "吉野川市山川町町93"}}, {"type": "Feature", "geometry": {"type": "Polygon", "coordinates": [[[134.270069, 34.069343], [134.22565, 34.055563], [134.27038, 34.069349], [134.270069, 34.069343]]]}, "properties": {"A27_001": "36205", "A27_002": "吉野川市立", "A27_003": "B136220500100", "A27_004": "山瀬小学校", "A27_005": "吉野川市山川町諏訪266-1"}}, {"type": "Feature", "geometry": {"type": "Polygon", "coordinates": [[[134.49395, 33.911021], [134.514425, 33.929681], [134.506526, 33.965191], [134.476532, 33.966439], [134.464362, 33.951278], [134.431593, 33.957264], [134.432218, 33.929532], [134.456787, 33.925069], [134.429126, 33.858829], [134.46269029425048, 33.86533578454502], [134.468383, 33.892242], [134.492554, 33.910874], [134.49395, 33.911021]]]}, "properties": {"A27_001": "36301", "A27_002": "勝浦町立", "A27_003": "B136230100023", "A27_004": "横瀬小学校", "A27_005": "勝浦郡勝浦町大字三溪字上川原13-2"}}, {"type": "Feature", "geometry": {"type": "MultiPolygon", "coordinates": [[[[134.389891, 33.650581], [134.402357, 33.659916], [134.41726, 33.656615], [134.419121, 33.665795], [134.442308, 33.663795], [134.47234, 33.681662], [134.474672, 33.693962], [134.460049, 33.698114], [134.449169, 33.723387], [134.4272, 33.71532], [134.39272, 33.718367], [134.360558, 33.695993], [134.362058, 33.677474], [134.387596, 33.653778], [134.389891, 33.650581]]], [[[134.4209561480379, 33.63599115991329], [134.42562871801738, 33.628885290715246], [134.42194697384983, 33.63797583957442], [134.4209561480379, 33.63599115991329]]]]}, "properties": {"A27_001": "36383", "A27_002": "牟岐町立", "A27_003": "B136238300015", "A27_004": "牟岐小学校", "A27_005": "海部郡牟岐町大字川長字市宇谷100"}}, {"type": "Feature", "geometry": {"type": "Polygon", "coordinates": [[[134.325236, 34.070605], [134.350873, 34.063857], [134.325303, 34.070638], [134.325236, 34.070605]]]}, "properties": {"A27_001": "36205", "A27_002": "吉野川市立", "A27_003": "B136220500066", "A27_004": "西麻植小学校", "A27_005": "吉野川市鴨島町西麻植字絵馬堂85-2"}}, {"type": "Feature", "geometry": {"type": "Polygon", "coordinates": [[[134.361908, 34.066121], [134.354287, 34.039623], [134.366739, 34.029054], [134.394452, 34.052968], [134.361693, 34.068431], [134.361908, 34.066121]]]}, "properties": {"A27_001": "36205", "A27_002": "吉野川市立", "A27_003": "B136220500057", "A27_004": "森山小学校", "A27_005": "吉野川市鴨島町山路1086"}}, {"type": "Feature", "geometry": {"type": "Polygon", "coordinates": [[[134.334861, 34.029753], [134.363925, 34.065866], [134.339324, 34.062545], [134.33289, 34.031053], [134.334861, 34.029753]]]}, "properties": {"A27_001": "36205", "A27_002": "吉野川市立", "A27_003": "B136220500048", "A27_004": "飯尾敷地小学校", "A27_005": "吉野川市鴨島町飯尾7"}}, {"type": "Feature", "geometry": {"type": "Polygon", "coordinates": [[[134.497593, 34.013934], [134.482224, 34.02238], [134.461193, 34.00635], [134.440367, 34.00946], [134.41112, 33.984915], [134.399692, 33.952501], [134.468084, 33.95211], [134.486573, 33.967954], [134.481165, 33.980279], [134.497893, 34.013476], [134.497593, 34.013934]]]}, "properties": {"A27_001": "36321", "A27_002": "佐那河内村立", "A27_003": "B136232100010", "A27_004": "佐那河内小学校", "A27_005": "名東郡佐那河内村下字西ノハナ27"}}, {"type": "Feature", "geometry": {"type": "Polygon", "coordinates": [[[134.372623, 34.080357], [134.345835, 34.068555], [134.374518, 34.077083], [134.372623, 34.080357]]]}, "properties": {"A27_001": "36205", "A27_002": "吉野川市立", "A27_003": "B136220500039", "A27_004": "鴨島小学校", "A27_005": "吉野川市鴨島町鴨島564"}}, {"type": "Feature", "geometry": {"type": "Polygon", "coordinates": [[[134.394452, 34.052968], [134.375018, 34.089066], [134.392933, 34.057747], [134.394452, 34.052968]]]}, "properties": {"A27_001": "36205", "A27_002": "吉野川市立", "A27_003": "B136220500020", "A27_004": "牛島小学校", "A27_005": "吉野川市鴨島町牛島865-1"}}, {"type": "Feature", "geometry": {"type": "Polygon", "coordinates": [[[134.296269, 34.068797], [134.267713, 34.045918], [134.29572, 34.059986], [134.296269, 34.068797]]]}, "properties": {"A27_001": "36205", "A27_002": "吉野川市立", "A27_003": "B136220500093", "A27_004": "学島小学校", "A27_005": "吉野川市川島町学字辻76"}}, {"type": "Feature", "geometry": {"type": "Polygon", "coordinates": [[[134.324349, 34.070167], [134.29707, 34.045404], [134.325236, 34.070605], [134.324349, 34.070167]]]}, "properties": {"A27_001": "36205", "A27_002": "吉野川市立", "A27_003": "B136220500084", "A27_004": "川島小学校", "A27_005": "吉野川市川島町桑村2193"}}, {"type": "Feature", "geometry": {"type": "Polygon", "coordinates": [[[134.376426, 34.087208], [134.333258, 34.072922], [134.378495, 34.082062], [134.376426, 34.087208]]]}, "properties": {"A27_001": "36205", "A27_002": "吉野川市立", "A27_003": "B136220500075", "A27_004": "知恵島小学校", "A27_005": "吉野川市鴨島町知恵島781"}}, {"type": "Feature", "geometry": {"type": "Polygon", "coordinates": [[[134.558478, 34.122113], [134.535574, 34.122141], [134.557743, 34.121968], [134.558478, 34.122113]]]}, "properties": {"A27_001": "36402", "A27_002": "北島町立", "A27_003": "B136240200030", "A27_004": "北島南小学校", "A27_005": "板野郡北島町江尻字宮ノ本40-2"}}, {"type": "Feature", "geometry": {"type": "Polygon", "coordinates": [[[134.564972, 34.132996], [134.539956, 34.138842], [134.527609, 34.126309], [134.560165, 34.120874], [134.565419, 34.132285], [134.564972, 34.132996]]]}, "properties": {"A27_001": "36402", "A27_002": "北島町立", "A27_003": "B136240200021", "A27_004": "北島小学校", "A27_005": "板野郡北島町中村字長池17-3"}}, {"type": "Feature", "geometry": {"type": "Polygon", "coordinates": [[[134.559698, 34.143776], [134.540572, 34.136066], [134.561044, 34.143223], [134.559698, 34.143776]]]}, "properties": {"A27_001": "36402", "A27_002": "北島町立", "A27_003": "B136240200012", "A27_004": "北島北小学校", "A27_005": "板野郡北島町北村字壱町四反地20-1"}}, {"type": "Feature", "geometry": {"type": "Polygon", "coordinates": [[[134.21067, 33.721551], [134.256711, 33.718819], [134.281866, 33.731021], [134.320189, 33.732532], [134.394579, 33.724372], [134.426802, 33.761719], [134.528154, 33.804079], [134.512007, 33.806267], [134.492633, 33.833503], [134.465916, 33.840821], [134.46269029425048, 33.86533578454502], [134.432092, 33.855827], [134.414703, 33.860011], [134.35038, 33.850104], [134.351648, 33.857758], [134.326572, 33.864021], [134.325271, 33.886744], [134.307613, 33.906663], [134.249948, 33.916964], [134.231443, 33.907936], [134.239038, 33.89169], [134.208684, 33.880854], [134.191109, 33.885601], [134.169291, 33.867251], [134.143442, 33.868741], [134.110522, 33.852747], [134.095264, 33.854964], [134.085366, 33.843969], [134.08865, 33.825563], [134.139786, 33.815722], [134.166921, 33.821564], [134.167331, 33.828813], [134.232922, 33.835325], [134.243776, 33.802277], [134.256912, 33.797786], [134.229516, 33.782114], [134.233793, 33.75399], [134.205366, 33.736152], [134.210128, 33.72203], [134.21067, 33.721551]]]}, "properties": {"A27_001": "36368", "A27_002": "那賀町立", "A27_003": "B136236800023", "A27_004": "相生小学校", "A27_005": "那賀郡那賀町延野字大原80"}}, {"type": "Feature", "geometry": {"type": "Polygon", "coordinates": [[[134.46269029425048, 33.86533578454502], [134.465916, 33.840821], [134.50914, 33.818332], [134.530667, 33.847126], [134.556576, 33.855141], [134.556111, 33.869038], [134.540421, 33.873263], [134.462949, 33.867731], [134.46269029425048, 33.86533578454502]]]}, "properties": {"A27_001": "36368", "A27_002": "那賀町立", "A27_003": "B136236800014", "A27_004": "鷲敷小学校", "A27_005": "那賀郡那賀町和食字町117-4"}}, {"type": "Feature", "geometry": {"type": "Polygon", "coordinates": [[[134.21067, 33.721551], [134.205366, 33.736152], [134.233793, 33.75399], [134.229516, 33.782114], [134.256912, 33.797786], [134.243776, 33.802277], [134.232922, 33.835325], [134.167331, 33.828813], [134.139786, 33.815722], [134.08865, 33.825563], [134.078126, 33.846002], [134.032828, 33.8284], [134.033311, 33.809278], [134.058133, 33.781141], [134.056084, 33.751478], [134.068359, 33.729333], [134.058057, 33.691033], [134.122565, 33.696064], [134.160966, 33.686835], [134.209781, 33.720777], [134.21067, 33.721551]]]}, "properties": {"A27_001": "36368", "A27_002": "那賀町立", "A27_003": "B136236800050", "A27_004": "木頭小学校", "A27_005": "那賀郡那賀町木頭和無田字ナカスジ1"}}, {"type": "Feature", "geometry": {"type": "Polygon", "coordinates": [[[134.095978, 33.854984], [134.239038, 33.89169], [134.220645, 33.918079], [134.230588, 33.93339], [134.226968, 33.949724], [134.255949, 33.976796], [134.187701, 33.986084], [134.180816, 33.965787], [134.168216, 33.960829], [134.174517, 33.930155], [134.127371, 33.922274], [134.121705, 33.889499], [134.089006, 33.878337], [134.095917, 33.855068], [134.095978, 33.854984]]]}, "properties": {"A27_001": "36207", "A27_002": "美馬市立", "A27_003": "B136220700082", "A27_004": "木屋平小学校", "A27_005": "美馬市木屋平字谷口235"}}, {"type": "Feature", "geometry": {"type": "Polygon", "coordinates": [[[134.195805, 33.989114], [134.182707, 34.016029], [134.198746, 34.034249], [134.187679, 34.062581], [134.155197, 34.058179], [134.140646, 34.038002], [134.110032, 34.031191], [134.118893, 34.016445], [134.098078, 33.95669], [134.105472, 33.941654], [134.099923, 33.923344], [134.174517, 33.930155], [134.168216, 33.960829], [134.193286, 33.98814], [134.195805, 33.989114]]]}, "properties": {"A27_001": "36207", "A27_002": "美馬市立", "A27_003": "B136220700073", "A27_004": "穴吹小学校", "A27_005": "美馬市穴吹町穴吹柏40"}}, {"type": "Feature", "geometry": {"type": "Polygon", "coordinates": [[[134.131793, 34.062717], [134.093241, 34.044737], [134.147603, 34.064875], [134.131793, 34.062717]]]}, "properties": {"A27_001": "36207", "A27_002": "美馬市立", "A27_003": "B136220700064", "A27_004": "三島小学校", "A27_005": "美馬市穴吹町三島字三谷374"}}, {"type": "Feature", "geometry": {"type": "Polygon", "coordinates": [[[134.075424, 34.117516], [134.002532, 34.08138], [134.000059, 34.03732], [134.088004, 34.057981], [134.068151, 34.091131], [134.078, 34.115801], [134.075424, 34.117516]]]}, "properties": {"A27_001": "36207", "A27_002": "美馬市立", "A27_003": "B136220700055", "A27_004": "美馬小学校", "A27_005": "美馬市美馬町字谷ヨリ西68"}}, {"type": "Feature", "geometry": {"type": "Polygon", "coordinates": [[[134.131793, 34.062717], [134.122757, 34.119034], [134.079188, 34.121031], [134.068151, 34.091131], [134.089172, 34.069242], [134.086259, 34.053492], [134.13023, 34.062496], [134.131793, 34.062717]]]}, "properties": {"A27_001": "36207", "A27_002": "美馬市立", "A27_003": "B136220700046", "A27_004": "岩倉小学校", "A27_005": "美馬市脇町岩倉2879"}}, {"type": "Feature", "geometry": {"type": "Polygon", "coordinates": [[[134.157731, 34.096861], [134.122757, 34.119034], [134.131793, 34.062717], [134.157052, 34.096491], [134.157731, 34.096861]]]}, "properties": {"A27_001": "36207", "A27_002": "美馬市立", "A27_003": "B136220700037", "A27_004": "脇町小学校", "A27_005": "美馬市脇町大字猪尻字西ノ久保116"}}, {"type": "Feature", "geometry": {"type": "Polygon", "coordinates": [[[134.208726, 34.174726], [134.173746, 34.177002], [134.146316, 34.165285], [134.129152, 34.123519], [134.167712, 34.092393], [134.202551, 34.108472], [134.221886, 34.157173], [134.209582, 34.173478], [134.208726, 34.174726]]]}, "properties": {"A27_001": "36207", "A27_002": "美馬市立", "A27_003": "B136220700028", "A27_004": "江原北小学校", "A27_005": "美馬市脇町字西赤谷3744-2"}}, {"type": "Feature", "geometry": {"type": "Polygon", "coordinates": [[[134.186324, 34.063551], [134.19742, 34.107733], [134.157052, 34.096491], [134.163966, 34.05718], [134.187679, 34.062581], [134.186324, 34.063551]]]}, "properties": {"A27_001": "36207", "A27_002": "美馬市立", "A27_003": "B136220700019", "A27_004": "江原南小学校", "A27_005": "美馬市脇町字拝原829"}}, {"type": "Feature", "geometry": {"type": "MultiPolygon", "coordinates": [[[[134.316828, 33.54797], [134.323806, 33.540185], [134.317118, 33.549119], [134.316828, 33.54797]]], [[[134.18416, 33.649012], [134.149251, 33.627141], [134.155956, 33.611789], [134.175933, 33.607326], [134.170525, 33.597085], [134.184719, 33.588686], [134.19317, 33.561627], [134.218479, 33.567611], [134.237756, 33.552049], [134.281715, 33.561022], [134.313707, 33.545534], [134.319816, 33.555472], [134.304654, 33.561998], [134.318241, 33.582021], [134.363739, 33.580206], [134.332061, 33.582402], [134.343958, 33.589922], [134.293719, 33.581339], [134.274921, 33.597454], [134.276219, 33.616094], [134.231977, 33.632088], [134.211452, 33.6288], [134.200377, 33.65562], [134.184304, 33.648626], [134.18416, 33.649012]]]]}, "properties": {"A27_001": "36388", "A27_002": "海陽町立", "A27_003": "B136238800038", "A27_004": "宍喰小学校", "A27_005": "海部郡海陽町久保字松本88"}}, {"type": "Feature", "geometry": {"type": "Polygon", "coordinates": [[[134.343933, 33.58524], [134.36449, 33.591467], [134.323519, 33.609813], [134.330742, 33.64881], [134.318372, 33.633899], [134.3086, 33.636695], [134.306416, 33.621073], [134.276219, 33.616094], [134.274921, 33.597454], [134.293719, 33.581339], [134.344647, 33.588521], [134.343933, 33.58524]]]}, "properties": {"A27_001": "36388", "A27_002": "海陽町立", "A27_003": "B136238800029", "A27_004": "海部小学校", "A27_005": "海部郡海陽町奥浦字堤ノ外44"}}, {"type": "Feature", "geometry": {"type": "Polygon", "coordinates": [[[134.276219, 33.616094], [134.306416, 33.621073], [134.3086, 33.636695], [134.318372, 33.633899], [134.328757, 33.649015], [134.335426, 33.640342], [134.325825, 33.60785], [134.361482, 33.596591], [134.383461, 33.614664], [134.389927, 33.62332], [134.362626, 33.625034], [134.391598, 33.647897], [134.362058, 33.677474], [134.360558, 33.695993], [134.393699, 33.713314], [134.394579, 33.724372], [134.281866, 33.731021], [134.256711, 33.718819], [134.21067, 33.721551], [134.162737, 33.696631], [134.174654, 33.684285], [134.168965, 33.670768], [134.176368, 33.653477], [134.200377, 33.65562], [134.211452, 33.6288], [134.231977, 33.632088], [134.235636, 33.624595], [134.273899, 33.616489], [134.276219, 33.616094]]]}, "properties": {"A27_001": "36388", "A27_002": "海陽町立", "A27_003": "B136238800010", "A27_004": "海南小学校", "A27_005": "海部郡海陽町四方原字旭町50"}}, {"type": "Feature", "geometry": {"type": "Polygon", "coordinates": [[[134.692053, 33.839179], [134.720459, 33.845066], [134.692592, 33.840934], [134.692053, 33.839179]]]}, "properties": {"A27_001": "36204", "A27_002": "阿南市立", "A27_003": "B136220400192", "A27_004": "椿泊小学校", "A27_005": "阿南市椿泊町東127"}}, {"type": "Feature", "geometry": {"type": "MultiPolygon", "coordinates": [[[[134.808098, 33.850841], [134.805391, 33.843332], [134.817104, 33.842094], [134.82147, 33.856185], [134.80706, 33.851376], [134.808098, 33.850841]]], [[[134.798219, 33.844517], [134.791992, 33.846784], [134.79708, 33.845885], [134.798219, 33.844517]]], [[[134.803931, 33.839884], [134.802432, 33.843639], [134.802668, 33.839242], [134.803931, 33.839884]]], [[[134.804847, 33.841657], [134.806142, 33.84124], [134.805167, 33.842603], [134.804847, 33.841657]]]]}, "properties": {"A27_001": "36204", "A27_002": "阿南市立", "A27_003": "B136220400174", "A27_004": "伊島小学校", "A27_005": "阿南市伊島町瀬戸3-2"}}, {"type": "Feature", "geometry": {"type": "Polygon", "coordinates": [[[134.623608, 33.799799], [134.67487, 33.816393], [134.678939, 33.804479], [134.689042, 33.80553], [134.750057, 33.834689], [134.741593, 33.842169], [134.719773, 33.831393], [134.700794, 33.836267], [134.680353, 33.830242], [134.692053, 33.839179], [134.687479, 33.846982], [134.70194, 33.849458], [134.687806, 33.85285], [134.662538, 33.843611], [134.657408, 33.848848], [134.65933, 33.832894], [134.618421, 33.814251], [134.624157, 33.800435], [134.623608, 33.799799]]]}, "properties": {"A27_001": "36204", "A27_002": "阿南市立", "A27_003": "B136220400165", "A27_004": "椿小学校", "A27_005": "阿南市椿町黒田47"}}, {"type": "Feature", "geometry": {"type": "Polygon", "coordinates": [[[134.632085, 33.857108], [134.589967, 33.817889], [134.553901, 33.819212], [134.549016, 33.804702], [134.577368, 33.786327], [134.610384, 33.789336], [134.619699, 33.815921], [134.65933, 33.832894], [134.656858, 33.847254], [134.63984, 33.843806], [134.646639, 33.866514], [134.632787, 33.857371], [134.632085, 33.857108]]]}, "properties": {"A27_001": "36204", "A27_002": "阿南市立", "A27_003": "B136220400147", "A27_004": "福井小学校", "A27_005": "阿南市福井町大西192-1"}}, {"type": "Feature", "geometry": {"type": "Polygon", "coordinates": [[[134.632085, 33.857108], [134.637317, 33.872906], [134.654239, 33.871243], [134.656554, 33.88159], [134.632041, 33.877398], [134.613957, 33.845845], [134.631102, 33.854534], [134.632085, 33.857108]]]}, "properties": {"A27_001": "36204", "A27_002": "阿南市立", "A27_003": "B136220400138", "A27_004": "橘小学校", "A27_005": "阿南市橘町大浦166-1"}}, {"type": "Feature", "geometry": {"type": "Polygon", "coordinates": [[[134.57269, 33.941742], [134.475208, 33.901237], [134.467874, 33.869855], [134.498151, 33.865285], [134.58682, 33.885286], [134.589066, 33.916218], [134.576222, 33.919688], [134.573454, 33.940858], [134.57269, 33.941742]]]}, "properties": {"A27_001": "36204", "A27_002": "阿南市立", "A27_003": "B136220400110", "A27_004": "吉井小学校", "A27_005": "阿南市吉井町原18-2"}}, {"type": "Feature", "geometry": {"type": "Polygon", "coordinates": [[[134.540421, 33.873263], [134.60644, 33.865306], [134.598658, 33.885477], [134.543042, 33.875424], [134.540421, 33.873263]]]}, "properties": {"A27_001": "36204", "A27_002": "阿南市立", "A27_003": "B136220400101", "A27_004": "山口小学校", "A27_005": "阿南市山口町久延69-1"}}, {"type": "Feature", "geometry": {"type": "Polygon", "coordinates": [[[134.636699, 33.891834], [134.598658, 33.885477], [134.605144, 33.855354], [134.636333, 33.885428], [134.636699, 33.891834]]]}, "properties": {"A27_001": "36204", "A27_002": "阿南市立", "A27_003": "B136220400094", "A27_004": "桑野小学校", "A27_005": "阿南市桑野町岡元40-1"}}, {"type": "Feature", "geometry": {"type": "Polygon", "coordinates": [[[134.643798, 33.895188], [134.66248, 33.881313], [134.644289, 33.894894], [134.643798, 33.895188]]]}, "properties": {"A27_001": "36204", "A27_002": "阿南市立", "A27_003": "B136220400085", "A27_004": "津乃峰小学校", "A27_005": "阿南市津乃峰町戎山129-37"}}, {"type": "Feature", "geometry": {"type": "Polygon", "coordinates": [[[134.662037, 33.88108], [134.675288, 33.8796], [134.702988, 33.913831], [134.665711, 33.916684], [134.672333, 33.907087], [134.641927, 33.901142], [134.66248, 33.881313], [134.662037, 33.88108]]]}, "properties": {"A27_001": "36204", "A27_002": "阿南市立", "A27_003": "B136220400076", "A27_004": "見能林小学校", "A27_005": "阿南市見能林町西内35"}}, {"type": "Feature", "geometry": {"type": "Polygon", "coordinates": [[[134.615062, 33.926594], [134.58682, 33.885286], [134.642516, 33.892641], [134.617149, 33.925867], [134.615062, 33.926594]]]}, "properties": {"A27_001": "36204", "A27_002": "阿南市立", "A27_003": "B136220400067", "A27_004": "長生小学校", "A27_005": "阿南市長生町五反地25-2"}}, {"type": "Feature", "geometry": {"type": "Polygon", "coordinates": [[[134.576151, 33.944692], [134.615742, 33.9247], [134.578332, 33.943649], [134.576151, 33.944692]]]}, "properties": {"A27_001": "36204", "A27_002": "阿南市立", "A27_003": "B136220400058", "A27_004": "大野小学校", "A27_005": "阿南市下大野町三条5"}}, {"type": "Feature", "geometry": {"type": "Polygon", "coordinates": [[[134.627931, 33.926131], [134.647932, 33.905053], [134.63091, 33.928181], [134.627931, 33.926131]]]}, "properties": {"A27_001": "36204", "A27_002": "阿南市立", "A27_003": "B136220400049", "A27_004": "宝田小学校", "A27_005": "阿南市宝田町久保田124"}}, {"type": "Feature", "geometry": {"type": "Polygon", "coordinates": [[[134.457829, 34.116508], [134.453214, 34.137829], [134.441673, 34.11431], [134.457829, 34.116508]]]}, "properties": {"A27_001": "36404", "A27_002": "板野町立", "A27_003": "B136240400047", "A27_004": "板野南小学校", "A27_005": "板野郡板野町下ノ庄字栖養44"}}, {"type": "Feature", "geometry": {"type": "Polygon", "coordinates": [[[134.433548, 34.123465], [134.458301, 34.138975], [134.449408, 34.163733], [134.432984, 34.168125], [134.412932, 34.156883], [134.433636, 34.124056], [134.433548, 34.123465]]]}, "properties": {"A27_001": "36404", "A27_002": "板野町立", "A27_003": "B136240400038", "A27_004": "板野西小学校", "A27_005": "板野郡板野町那東字泉西5"}}, {"type": "Feature", "geometry": {"type": "Polygon", "coordinates": [[[134.464583, 34.176335], [134.429196, 34.183193], [134.464014, 34.175017], [134.464583, 34.176335]]]}, "properties": {"A27_001": "36404", "A27_002": "板野町立", "A27_003": "B136240400029", "A27_004": "板野東小学校大坂分校", "A27_005": "板野郡板野町大坂字宮東20"}}, {"type": "Feature", "geometry": {"type": "Polygon", "coordinates": [[[134.464583, 34.176335], [134.454831, 34.192441], [134.429196, 34.183193], [134.456949, 34.127521], [134.486751, 34.147949], [134.478524, 34.178616], [134.465486, 34.176376], [134.464583, 34.176335]]]}, "properties": {"A27_001": "36404", "A27_002": "板野町立", "A27_003": "B136240400010", "A27_004": "板野東小学校", "A27_005": "板野郡板野町吹田字町東2"}}, {"type": "Feature", "geometry": {"type": "Polygon", "coordinates": [[[134.647932, 33.905053], [134.702988, 33.913831], [134.705188, 33.931844], [134.663532, 33.936689], [134.649093, 33.907894], [134.647932, 33.905053]]]}, "properties": {"A27_001": "36204", "A27_002": "阿南市立", "A27_003": "B136220400030", "A27_004": "富岡小学校", "A27_005": "阿南市領家町浜田200"}}, {"type": "Feature", "geometry": {"type": "Polygon", "coordinates": [[[134.645808, 33.928645], [134.669329, 33.927644], [134.646048, 33.930426], [134.645808, 33.928645]]]}, "properties": {"A27_001": "36204", "A27_002": "阿南市立", "A27_003": "B136220400021", "A27_004": "横見小学校", "A27_005": "阿南市横見町前長岡67-2"}}, {"type": "Feature", "geometry": {"type": "Polygon", "coordinates": [[[134.64478, 33.938648], [134.608683, 33.939649], [134.644908, 33.931827], [134.64478, 33.938648]]]}, "properties": {"A27_001": "36204", "A27_002": "阿南市立", "A27_003": "B136220400012", "A27_004": "中野島小学校", "A27_005": "阿南市上中町中原182-1"}}, {"type": "Feature", "geometry": {"type": "Polygon", "coordinates": [[[134.633857, 33.941832], [134.620649, 33.952016], [134.575817, 33.942499], [134.634341, 33.94179], [134.633857, 33.941832]]]}, "properties": {"A27_001": "36204", "A27_002": "阿南市立", "A27_003": "B136220400263", "A27_004": "岩脇小学校", "A27_005": "阿南市羽ノ浦町岩脇町筋87"}}, {"type": "Feature", "geometry": {"type": "Polygon", "coordinates": [[[134.612286, 33.951669], [134.633857, 33.941832], [134.629732, 33.947968], [134.644999, 33.952086], [134.625172, 33.969682], [134.611142, 33.954523], [134.612286, 33.951669]]]}, "properties": {"A27_001": "36204", "A27_002": "阿南市立", "A27_003": "B136220400254", "A27_004": "羽ノ浦小学校", "A27_005": "阿南市羽ノ浦町中庄原婦知1-1"}}, {"type": "Feature", "geometry": {"type": "Polygon", "coordinates": [[[134.699965, 33.939512], [134.671878, 33.961061], [134.629732, 33.947968], [134.662275, 33.932328], [134.688736, 33.939149], [134.699965, 33.939512]]]}, "properties": {"A27_001": "36204", "A27_002": "阿南市立", "A27_003": "B136220400245", "A27_004": "平島小学校", "A27_005": "阿南市那賀川町赤池131-2"}}, {"type": "Feature", "geometry": {"type": "Polygon", "coordinates": [[[134.650707, 33.985463], [134.646621, 33.95133], [134.670455, 33.959358], [134.650723, 33.985992], [134.650707, 33.985463]]]}, "properties": {"A27_001": "36204", "A27_002": "阿南市立", "A27_003": "B136220400236", "A27_004": "今津小学校", "A27_005": "阿南市那賀川町敷地238"}}, {"type": "Feature", "geometry": {"type": "Polygon", "coordinates": [[[134.612813, 33.851074], [134.599276, 33.832754], [134.613424, 33.849674], [134.612813, 33.851074]]]}, "properties": {"A27_001": "36204", "A27_002": "阿南市立", "A27_003": "B136220400227", "A27_004": "新野東小学校", "A27_005": "阿南市新野町是国37-2"}}, {"type": "Feature", "geometry": {"type": "Polygon", "coordinates": [[[134.556576, 33.855141], [134.525052, 33.842278], [134.510076, 33.822938], [134.512007, 33.806267], [134.589967, 33.817889], [134.603002, 33.860851], [134.56597, 33.8564], [134.556576, 33.855141]]]}, "properties": {"A27_001": "36204", "A27_002": "阿南市立", "A27_003": "B136220400209", "A27_004": "新野小学校", "A27_005": "阿南市新野町南宮ノ久保70-1"}}, {"type": "Feature", "geometry": {"type": "Polygon", "coordinates": [[[134.543973, 34.059663], [134.544025, 34.075935], [134.542205, 34.059782], [134.543973, 34.059663]]]}, "properties": {"A27_001": "36201", "A27_002": "徳島市立", "A27_003": "B136220100024", "A27_004": "新町小学校", "A27_005": "徳島市東山手町2-25"}}, {"type": "Feature", "geometry": {"type": "Polygon", "coordinates": [[[134.544422, 34.080486], [134.563548, 34.066679], [134.553712, 34.076763], [134.544422, 34.080486]]]}, "properties": {"A27_001": "36201", "A27_002": "徳島市立", "A27_003": "B136220100015", "A27_004": "内町小学校", "A27_005": "徳島市徳島町城内1-15"}}, {"type": "Feature", "geometry": {"type": "Polygon", "coordinates": [[[134.47234, 33.681662], [134.543247, 33.718887], [134.540483, 33.731592], [134.545256, 33.737646], [134.551324, 33.735437], [134.554991, 33.742026], [134.554833, 33.734182], [134.566933, 33.732929], [134.564081, 33.752237], [134.554874, 33.75505], [134.551812, 33.769051], [134.576676, 33.789262], [134.54874, 33.806048], [134.490773, 33.794192], [134.479169, 33.780058], [134.447382, 33.773887], [134.449463, 33.766077], [134.426802, 33.761719], [134.413049, 33.741622], [134.401945, 33.73983], [134.39272, 33.718367], [134.4272, 33.71532], [134.449169, 33.723387], [134.457657, 33.701269], [134.474672, 33.693962], [134.475512, 33.685619], [134.47234, 33.681662]]]}, "properties": {"A27_001": "36387", "A27_002": "美波町立", "A27_003": "B136238700057", "A27_004": "日和佐小学校", "A27_005": "海部郡美波町奥河内字本村34-1"}}, {"type": "Feature", "geometry": {"type": "Polygon", "coordinates": [[[134.606907, 33.789164], [134.577368, 33.786327], [134.553437, 33.773201], [134.564673, 33.732533], [134.57549, 33.753904], [134.572041, 33.765697], [134.58045, 33.762185], [134.581763, 33.771524], [134.596488, 33.775665], [134.592798, 33.77037], [134.602059, 33.764099], [134.62003, 33.786574], [134.641361, 33.78063], [134.640596, 33.789032], [134.659383, 33.795634], [134.646163, 33.806042], [134.606911, 33.789165], [134.606907, 33.789164]]]}, "properties": {"A27_001": "36387", "A27_002": "美波町立", "A27_003": "B136238700039", "A27_004": "由岐小学校", "A27_005": "海部郡美波町西の地字谷裏90-19"}}, {"type": "Feature", "geometry": {"type": "Polygon", "coordinates": [[[134.659383, 33.795634], [134.677579, 33.814324], [134.657357, 33.798654], [134.659383, 33.795634]]]}, "properties": {"A27_001": "36387", "A27_002": "美波町立", "A27_003": "B136238700011", "A27_004": "伊座利小学校", "A27_005": "海部郡美波町伊座利354-2"}}, {"type": "Feature", "geometry": {"type": "Polygon", "coordinates": [[[134.202551, 34.108472], [134.186324, 34.063551], [134.223854, 34.066162], [134.204032, 34.108277], [134.202551, 34.108472]]]}, "properties": {"A27_001": "36206", "A27_002": "阿波市立", "A27_003": "B136220600118", "A27_004": "林小学校", "A27_005": "阿波市阿波町東整理155-1"}}, {"type": "Feature", "geometry": {"type": "Polygon", "coordinates": [[[134.22091, 34.163669], [134.202551, 34.108472], [134.215447, 34.104151], [134.223854, 34.066162], [134.245675, 34.069696], [134.235879, 34.10119], [134.251712, 34.113483], [134.223787, 34.164746], [134.22091, 34.163669]]]}, "properties": {"A27_001": "36206", "A27_002": "阿波市立", "A27_003": "B136220600109", "A27_004": "伊沢小学校", "A27_005": "阿波市阿波町南柴生172"}}, {"type": "Feature", "geometry": {"type": "Polygon", "coordinates": [[[134.423212, 34.056181], [134.394452, 34.052968], [134.366739, 34.029054], [134.349857, 34.03883], [134.334861, 34.029753], [134.325129, 34.002833], [134.298932, 34.006481], [134.282678, 33.991294], [134.25393, 33.984674], [134.244675, 33.957916], [134.226968, 33.949724], [134.220119, 33.910544], [134.272573, 33.917227], [134.294558, 33.906714], [134.306445, 33.928041], [134.326494, 33.934457], [134.340691, 33.924981], [134.40029, 33.944779], [134.41112, 33.984915], [134.453318, 34.014482], [134.427308, 34.025699], [134.424205, 34.054728], [134.423212, 34.056181]]]}, "properties": {"A27_001": "36342", "A27_002": "神山町立", "A27_003": "B136234200024", "A27_004": "神領小学校", "A27_005": "名西郡神山町神領字大埜地411-1"}}, {"type": "Feature", "geometry": {"type": "Polygon", "coordinates": [[[134.597426, 34.146841], [134.559698, 34.143776], [134.59793229856174, 34.14683487307843], [134.597426, 34.146841]]]}, "properties": {"A27_001": "36401", "A27_002": "松茂町立", "A27_003": "B136240100031", "A27_004": "喜来小学校", "A27_005": "板野郡松茂町中喜来字前原西一番越14"}}, {"type": "Feature", "geometry": {"type": "Polygon", "coordinates": [[[134.597426, 34.146841], [134.564972, 34.132996], [134.60071214245596, 34.115390642125455], [134.598305, 34.147601], [134.597426, 34.146841]], [[134.59239044754594, 34.12283931477426], [134.59372236754325, 34.12282043340185], [134.59356474271186, 34.12086819346823], [134.59239044754594, 34.12283931477426]]]}, "properties": {"A27_001": "36401", "A27_002": "松茂町立", "A27_003": "B136240100022", "A27_004": "松茂小学校", "A27_005": "板野郡松茂町住吉字住吉開拓187"}}, {"type": "Feature", "geometry": {"type": "MultiPolygon", "coordinates": [[[[134.60315471950062, 34.145363713416565], [134.617153, 34.140548], [134.603444, 34.145665], [134.60315471950062, 34.145363713416565]]], [[[134.60071214245596, 34.115390642125455], [134.60967798344427, 34.13000989639302], [134.60017676241537, 34.11529168752154], [134.60071214245596, 34.115390642125455]]], [[[134.59239044754594, 34.12283931477426], [134.59356474271186, 34.12086819346823], [134.59372236754325, 34.12282043340185], [134.59239044754594, 34.12283931477426]]]]}, "properties": {"A27_001": "36401", "A27_002": "松茂町立", "A27_003": "B136240100013", "A27_004": "長原小学校", "A27_005": "板野郡松茂町長原530"}}, {"type": "Feature", "geometry": {"type": "Polygon", "coordinates": [[[134.498442, 34.072787], [134.491686, 34.089364], [134.465706, 34.072358], [134.464423, 34.049846], [134.497565, 34.071541], [134.498442, 34.072787]]]}, "properties": {"A27_001": "36201", "A27_002": "徳島市立", "A27_003": "B136220100266", "A27_004": "国府小学校", "A27_005": "徳島市国府町中61-1"}}, {"type": "Feature", "geometry": {"type": "Polygon", "coordinates": [[[134.509562, 34.120586], [134.556554, 34.092821], [134.533603, 34.125257], [134.511607, 34.120173], [134.509562, 34.120586]]]}, "properties": {"A27_001": "36201", "A27_002": "徳島市立", "A27_003": "B136220100257", "A27_004": "応神小学校", "A27_005": "徳島市応神町吉成字西吉成91-1"}}, {"type": "Feature", "geometry": {"type": "Polygon", "coordinates": [[[134.599906, 34.077683], [134.595852, 34.108006], [134.58333, 34.083636], [134.599906, 34.077683]]]}, "properties": {"A27_001": "36201", "A27_002": "徳島市立", "A27_003": "B136220100248", "A27_004": "川内南小学校", "A27_005": "徳島市川内町宮島本浦5-2"}}, {"type": "Feature", "geometry": {"type": "Polygon", "coordinates": [[[134.574691, 34.130363], [134.556554, 34.092821], [134.596472, 34.108594], [134.580151, 34.129951], [134.574691, 34.130363]]]}, "properties": {"A27_001": "36201", "A27_002": "徳島市立", "A27_003": "B136220100239", "A27_004": "川内北小学校", "A27_005": "徳島市川内町大松133"}}, {"type": "Feature", "geometry": {"type": "Polygon", "coordinates": [[[134.460132, 34.059868], [134.426368, 34.05302], [134.427308, 34.025699], [134.459805, 34.024844], [134.462977, 34.055964], [134.460132, 34.059868]]]}, "properties": {"A27_001": "36201", "A27_002": "徳島市立", "A27_003": "B136220100220", "A27_004": "入田小学校", "A27_005": "徳島市入田町春日180-1"}}, {"type": "Feature", "geometry": {"type": "Polygon", "coordinates": [[[134.478896, 34.020925], [134.493053, 34.045483], [134.466757, 34.050967], [134.449585, 34.008448], [134.461193, 34.00635], [134.476002, 34.020881], [134.478896, 34.020925]]]}, "properties": {"A27_001": "36201", "A27_002": "徳島市立", "A27_003": "B136220100211", "A27_004": "一宮小学校", "A27_005": "徳島市一宮町東丁224"}}, {"type": "Feature", "geometry": {"type": "Polygon", "coordinates": [[[134.478896, 34.020925], [134.510977, 34.015343], [134.525847, 34.035989], [134.505172, 34.052871], [134.479059, 34.023003], [134.478896, 34.020925]]]}, "properties": {"A27_001": "36201", "A27_002": "徳島市立", "A27_003": "B136220100202", "A27_004": "上八万小学校", "A27_005": "徳島市上八万町樋口52"}}, {"type": "Feature", "geometry": {"type": "Polygon", "coordinates": [[[134.516029, 34.092221], [134.489247, 34.106498], [134.511696, 34.091002], [134.516029, 34.092221]]]}, "properties": {"A27_001": "36201", "A27_002": "徳島市立", "A27_003": "B136220100195", "A27_004": "不動小学校", "A27_005": "徳島市不動本町2-133"}}, {"type": "Feature", "geometry": {"type": "Polygon", "coordinates": [[[134.549402, 33.998506], [134.551595, 34.017042], [134.504465, 34.013572], [134.547812, 33.998322], [134.549402, 33.998506]]]}, "properties": {"A27_001": "36201", "A27_002": "徳島市立", "A27_003": "B136220100186", "A27_004": "渋野小学校", "A27_005": "徳島市渋野町西池35-1"}}, {"type": "Feature", "geometry": {"type": "Polygon", "coordinates": [[[134.497593, 34.013934], [134.487098, 33.967408], [134.535565, 33.955211], [134.574259, 33.964412], [134.56419, 33.991547], [134.547083, 33.987375], [134.547548, 34.000849], [134.525546, 33.996133], [134.500158, 34.013888], [134.497593, 34.013934]]]}, "properties": {"A27_001": "36201", "A27_002": "徳島市立", "A27_003": "B136220100177", "A27_004": "宮井小学校", "A27_005": "徳島市多家良町小路地45"}}, {"type": "Feature", "geometry": {"type": "Polygon", "coordinates": [[[134.544265, 34.017189], [134.54272, 34.038132], [134.516956, 34.021552], [134.542686, 34.01674], [134.544265, 34.017189]]]}, "properties": {"A27_001": "36201", "A27_002": "徳島市立", "A27_003": "B136220100168", "A27_004": "方上小学校", "A27_005": "徳島市北山町下地1-3"}}, {"type": "Feature", "geometry": {"type": "Polygon", "coordinates": [[[134.561885, 34.028832], [134.600533, 34.018723], [134.588546, 34.028869], [134.595917, 34.034985], [134.57312, 34.042386], [134.560843, 34.030884], [134.561885, 34.028832]]]}, "properties": {"A27_001": "36201", "A27_002": "徳島市立", "A27_003": "B136220100159", "A27_004": "論田小学校", "A27_005": "徳島市論田町本浦上9"}}, {"type": "Feature", "geometry": {"type": "Polygon", "coordinates": [[[134.375018, 34.089066], [134.398924, 34.116286], [134.371431, 34.114611], [134.373432, 34.091385], [134.375018, 34.089066]]]}, "properties": {"A27_001": "36206", "A27_002": "阿波市立", "A27_003": "B136220600010", "A27_004": "一条小学校", "A27_005": "阿波市吉野町西条字岡ノ川原135"}}, {"type": "Feature", "geometry": {"type": "Polygon", "coordinates": [[[134.274474, 34.097608], [134.242057, 34.109029], [134.237201, 34.080928], [134.275479, 34.069443], [134.27565, 34.097309], [134.274474, 34.097608]]]}, "properties": {"A27_001": "36206", "A27_002": "阿波市立", "A27_003": "B136220600092", "A27_004": "久勝小学校", "A27_005": "阿波市阿波町森沢28"}}, {"type": "Feature", "geometry": {"type": "Polygon", "coordinates": [[[134.297882, 34.16864], [134.292233, 34.179143], [134.266077, 34.183213], [134.208726, 34.174726], [134.232693, 34.164704], [134.238676, 34.129302], [134.251423, 34.116554], [134.251922, 34.087006], [134.274036, 34.096516], [134.309298, 34.14461], [134.296449, 34.167123], [134.297882, 34.16864]]]}, "properties": {"A27_001": "36206", "A27_002": "阿波市立", "A27_003": "B136220600074", "A27_004": "大俣小学校", "A27_005": "阿波市市場町上喜来西原200"}}, {"type": "Feature", "geometry": {"type": "Polygon", "coordinates": [[[134.275479, 34.069443], [134.308734, 34.07072], [134.288809, 34.103091], [134.305787, 34.129503], [134.275683, 34.083315], [134.275479, 34.069443]]]}, "properties": {"A27_001": "36206", "A27_002": "阿波市立", "A27_003": "B136220600065", "A27_004": "市場小学校", "A27_005": "阿波市市場町市場上野段670"}}, {"type": "Feature", "geometry": {"type": "Polygon", "coordinates": [[[134.308734, 34.07072], [134.334404, 34.084209], [134.305236, 34.115171], [134.288809, 34.103091], [134.305085, 34.080887], [134.308734, 34.07072]]]}, "properties": {"A27_001": "36206", "A27_002": "阿波市立", "A27_003": "B136220600056", "A27_004": "八幡小学校", "A27_005": "阿波市市場町大野島稲荷138-1"}}, {"type": "Feature", "geometry": {"type": "Polygon", "coordinates": [[[134.298461, 34.132254], [134.311415, 34.093795], [134.337024, 34.084372], [134.339165, 34.140447], [134.298275, 34.133586], [134.298461, 34.132254]]]}, "properties": {"A27_001": "36206", "A27_002": "阿波市立", "A27_003": "B136220600047", "A27_004": "土成小学校", "A27_005": "阿波市土成町成当1203-1"}}, {"type": "Feature", "geometry": {"type": "Polygon", "coordinates": [[[134.348614, 34.104068], [134.384701, 34.113879], [134.367861, 34.155621], [134.375095, 34.1732], [134.351285, 34.185506], [134.344193, 34.17238], [134.298911, 34.169573], [134.309298, 34.14461], [134.339165, 34.140447], [134.347234, 34.105991], [134.348614, 34.104068]]]}, "properties": {"A27_001": "36206", "A27_002": "阿波市立", "A27_003": "B136220600038", "A27_004": "御所小学校", "A27_005": "阿波市土成町宮川内字広坪89"}}, {"type": "Feature", "geometry": {"type": "Polygon", "coordinates": [[[134.557973, 34.012744], [134.565307, 34.04165], [134.557811, 34.012085], [134.557973, 34.012744]]]}, "properties": {"A27_001": "36201", "A27_002": "徳島市立", "A27_003": "B136220100140", "A27_004": "大松小学校", "A27_005": "徳島市大松町上野神9"}}, {"type": "Feature", "geometry": {"type": "Polygon", "coordinates": [[[134.400855, 33.951296], [134.340691, 33.924981], [134.326494, 33.934457], [134.303297, 33.925614], [134.298725, 33.91038], [134.325271, 33.886744], [134.326572, 33.864021], [134.360799, 33.848585], [134.435023, 33.864641], [134.44838, 33.881232], [134.444028, 33.889771], [134.456787, 33.925069], [134.432218, 33.929532], [134.431593, 33.957264], [134.406573, 33.952505], [134.400855, 33.951296]]]}, "properties": {"A27_001": "36302", "A27_002": "上勝町立", "A27_003": "B136230200013", "A27_004": "上勝小学校", "A27_005": "勝浦郡上勝町大字正木字平間179"}}, {"type": "Feature", "geometry": {"type": "Polygon", "coordinates": [[[134.375018, 34.089066], [134.335401, 34.099906], [134.376426, 34.087208], [134.375018, 34.089066]]]}, "properties": {"A27_001": "36206", "A27_002": "阿波市立", "A27_003": "B136220600029", "A27_004": "柿原小学校", "A27_005": "阿波市吉野町柿原字ヒロナカ256-1"}}, {"type": "Feature", "geometry": {"type": "Polygon", "coordinates": [[[134.544422, 34.080486], [134.516029, 34.092221], [134.543113, 34.079693], [134.544422, 34.080486]]]}, "properties": {"A27_001": "36201", "A27_002": "徳島市立", "A27_003": "B136220100131", "A27_004": "千松小学校", "A27_005": "徳島市南田宮4-5-5"}}, {"type": "Feature", "geometry": {"type": "Polygon", "coordinates": [[[134.523912, 34.065891], [134.53014, 34.048607], [134.566367, 34.053878], [134.525067, 34.066234], [134.523912, 34.065891]]]}, "properties": {"A27_001": "36201", "A27_002": "徳島市立", "A27_003": "B136220100122", "A27_004": "八万小学校", "A27_005": "徳島市城南町4-1-52"}}, {"type": "Feature", "geometry": {"type": "Polygon", "coordinates": [[[134.498442, 34.072787], [134.522245, 34.065196], [134.49955, 34.074599], [134.498442, 34.072787]]]}, "properties": {"A27_001": "36201", "A27_002": "徳島市立", "A27_003": "B136220100113", "A27_004": "加茂名小学校", "A27_005": "徳島市庄町5-19"}}, {"type": "Feature", "geometry": {"type": "Polygon", "coordinates": [[[134.579432, 34.057505], [134.599906, 34.077683], [134.581282, 34.06341], [134.579432, 34.057505]]]}, "properties": {"A27_001": "36201", "A27_002": "徳島市立", "A27_003": "B136220100104", "A27_004": "沖洲小学校", "A27_005": "徳島市南沖洲2-2-4"}}, {"type": "Feature", "geometry": {"type": "Polygon", "coordinates": [[[134.576607, 34.054548], [134.555768, 34.055298], [134.572647, 34.053845], [134.576607, 34.054548]]]}, "properties": {"A27_001": "36201", "A27_002": "徳島市立", "A27_003": "B136220100097", "A27_004": "昭和小学校", "A27_005": "徳島市中昭和町5-60"}}, {"type": "Feature", "geometry": {"type": "MultiPolygon", "coordinates": [[[[134.575442, 34.041309], [134.589846, 34.050491], [134.552669, 34.040673], [134.57312, 34.042386], [134.575442, 34.041309]]], [[[134.590682, 34.045266], [134.596124, 34.049269], [134.591959, 34.048806], [134.590682, 34.045266]]]]}, "properties": {"A27_001": "36201", "A27_002": "徳島市立", "A27_003": "B136220100088", "A27_004": "津田小学校", "A27_005": "徳島市津田西町2-5-27"}}, {"type": "Feature", "geometry": {"type": "Polygon", "coordinates": [[[134.548919, 34.09416], [134.564157, 34.076218], [134.556554, 34.092821], [134.548919, 34.09416]]]}, "properties": {"A27_001": "36201", "A27_002": "徳島市立", "A27_003": "B136220100079", "A27_004": "助任小学校", "A27_005": "徳島市下助任町1-1"}}, {"type": "Feature", "geometry": {"type": "Polygon", "coordinates": [[[134.57148, 34.087891], [134.562463, 34.073232], [134.58333, 34.083636], [134.57148, 34.087891]]]}, "properties": {"A27_001": "36201", "A27_002": "徳島市立", "A27_003": "B136220100060", "A27_004": "城東小学校", "A27_005": "徳島市住吉3-2-5"}}, {"type": "Feature", "geometry": {"type": "Polygon", "coordinates": [[[134.577459, 34.072614], [134.562869, 34.068475], [134.580771, 34.069621], [134.577459, 34.072614]]]}, "properties": {"A27_001": "36201", "A27_002": "徳島市立", "A27_003": "B136220100051", "A27_004": "福島小学校", "A27_005": "徳島市福島1-7-28"}}, {"type": "Feature", "geometry": {"type": "Polygon", "coordinates": [[[134.555768, 34.055298], [134.550802, 34.06884], [134.55523, 34.055526], [134.555768, 34.055298]]]}, "properties": {"A27_001": "36201", "A27_002": "徳島市立", "A27_003": "B136220100042", "A27_004": "富田小学校", "A27_005": "徳島市中央通3-15"}}, {"type": "Feature", "geometry": {"type": "Polygon", "coordinates": [[[134.542742, 34.078597], [134.522245, 34.065196], [134.544025, 34.075935], [134.542742, 34.078597]]]}, "properties": {"A27_001": "36201", "A27_002": "徳島市立", "A27_003": "B136220100033", "A27_004": "佐古小学校", "A27_005": "徳島市南佐古四番町1-32"}}, {"type": "Feature", "geometry": {"type": "Polygon", "coordinates": [[[134.515477, 34.061108], [134.483891, 34.048075], [134.513448, 34.060744], [134.515477, 34.061108]]]}, "properties": {"A27_001": "36201", "A27_002": "徳島市立", "A27_003": "B136220100300", "A27_004": "加茂名南小学校", "A27_005": "徳島市鮎喰町2-11-88"}}, {"type": "Feature", "geometry": {"type": "Polygon", "coordinates": [[[134.522245, 34.065196], [134.516391, 34.039242], [134.559392, 34.046031], [134.523912, 34.065891], [134.522245, 34.065196]]]}, "properties": {"A27_001": "36201", "A27_002": "徳島市立", "A27_003": "B136220100293", "A27_004": "八万南小学校", "A27_005": "徳島市八万町橋本111"}}, {"type": "Feature", "geometry": {"type": "Polygon", "coordinates": [[[134.490805, 34.095963], [134.465874, 34.113017], [134.452904, 34.08653], [134.490746, 34.096864], [134.490805, 34.095963]]]}, "properties": {"A27_001": "36201", "A27_002": "徳島市立", "A27_003": "B136220100284", "A27_004": "北井上小学校", "A27_005": "徳島市国府町西黒田南傍示205-2"}}, {"type": "Feature", "geometry": {"type": "Polygon", "coordinates": [[[134.465706, 34.072358], [134.487291, 34.07895], [134.489812, 34.098317], [134.464738, 34.073837], [134.465706, 34.072358]]]}, "properties": {"A27_001": "36201", "A27_002": "徳島市立", "A27_003": "B136220100275", "A27_004": "南井上小学校", "A27_005": "徳島市国府町日開1007-2"}}, {"type": "Feature", "geometry": {"type": "Polygon", "coordinates": [[[134.088004, 34.057981], [134.10543, 34.0313], [134.086259, 34.053492], [134.088004, 34.057981]]]}, "properties": {"A27_001": "36468", "A27_002": "つるぎ町立", "A27_003": "B136246800040", "A27_004": "太田小学校", "A27_005": "美馬郡つるぎ町貞光字太田西107"}}, {"type": "Feature", "geometry": {"type": "Polygon", "coordinates": [[[134.07428, 34.051859], [134.045771, 34.034492], [134.058711, 34.017278], [134.053875, 33.969965], [133.966283, 33.938151], [134.002773, 33.919466], [134.002896, 33.906461], [134.047483, 33.895181], [134.048658, 33.870945], [134.089935, 33.874232], [134.12563, 33.900447], [134.126191, 33.920885], [134.099923, 33.923344], [134.098078, 33.95669], [134.118588, 34.017478], [134.110032, 34.031191], [134.083492, 34.029519], [134.075298, 34.046633], [134.07428, 34.051859]]]}, "properties": {"A27_001": "36468", "A27_002": "つるぎ町立", "A27_003": "B136246800031", "A27_004": "貞光小学校", "A27_005": "美馬郡つるぎ町貞光字野口87"}}, {"type": "Feature", "geometry": {"type": "Polygon", "coordinates": [[[134.05115, 34.044406], [133.999396, 34.037177], [134.00193, 33.99097], [133.972229, 33.960242], [133.977102, 33.946001], [134.053875, 33.969965], [134.051516, 34.042315], [134.05115, 34.044406]]]}, "properties": {"A27_001": "36468", "A27_002": "つるぎ町立", "A27_003": "B136246800013", "A27_004": "半田小学校", "A27_005": "美馬郡つるぎ町半田字田井289"}}, {"type": "Feature", "geometry": {"type": "Polygon", "coordinates": [[[134.495324, 34.130714], [134.458681, 34.110953], [134.496959, 34.129561], [134.495324, 34.130714]]]}, "properties": {"A27_001": "36403", "A27_002": "藍住町立", "A27_003": "B136240300020", "A27_004": "藍住南小学校", "A27_005": "板野郡藍住町奥野字和田95"}}, {"type": "Feature", "geometry": {"type": "Polygon", "coordinates": [[[134.509562, 34.120586], [134.4983, 34.143718], [134.50923, 34.120692], [134.509562, 34.120586]]]}, "properties": {"A27_001": "36403", "A27_002": "藍住町立", "A27_003": "B136240300011", "A27_004": "藍住北小学校", "A27_005": "板野郡藍住町住吉字乾1"}}, {"type": "Feature", "geometry": {"type": "Polygon", "coordinates": [[[134.516647, 34.139155], [134.509562, 34.120586], [134.517091, 34.138886], [134.516647, 34.139155]]]}, "properties": {"A27_001": "36403", "A27_002": "藍住町立", "A27_003": "B136240300048", "A27_004": "藍住東小学校", "A27_005": "板野郡藍住町勝瑞字成長155-1"}}, {"type": "Feature", "geometry": {"type": "Polygon", "coordinates": [[[134.4983, 34.143718], [134.470447, 34.126296], [134.49592, 34.141226], [134.4983, 34.143718]]]}, "properties": {"A27_001": "36403", "A27_002": "藍住町立", "A27_003": "B136240300039", "A27_004": "藍住西小学校", "A27_005": "板野郡藍住町富吉字豊吉55-1"}}, {"type": "Feature", "geometry": {"type": "Polygon", "coordinates": [[[134.606336, 33.984314], [134.611965, 33.965365], [134.623709, 33.968421], [134.625175, 33.994179], [134.60923, 33.988471], [134.606336, 33.984314]]]}, "properties": {"A27_001": "36203", "A27_002": "小松島市立", "A27_003": "B136220300111", "A27_004": "新開小学校", "A27_005": "小松島市大林町字中津37"}}, {"type": "Feature", "geometry": {"type": "Polygon", "coordinates": [[[134.628592, 33.990421], [134.651976, 33.986469], [134.631695, 34.010704], [134.628598, 33.991188], [134.628592, 33.990421]]]}, "properties": {"A27_001": "36203", "A27_002": "小松島市立", "A27_003": "B136220300102", "A27_004": "和田島小学校", "A27_005": "小松島市和田島町字山のはな8"}}, {"type": "Feature", "geometry": {"type": "Polygon", "coordinates": [[[134.631332, 33.964752], [134.64667, 33.990496], [134.621887, 33.983485], [134.631344, 33.965684], [134.631332, 33.964752]]]}, "properties": {"A27_001": "36203", "A27_002": "小松島市立", "A27_003": "B136220300095", "A27_004": "坂野小学校", "A27_005": "小松島市坂野町字根上り6-1"}}, {"type": "Feature", "geometry": {"type": "Polygon", "coordinates": [[[134.566946, 33.962237], [134.598062, 33.949441], [134.570545, 33.964195], [134.566946, 33.962237]]]}, "properties": {"A27_001": "36203", "A27_002": "小松島市立", "A27_003": "B136220300086", "A27_004": "櫛渕小学校", "A27_005": "小松島市櫛渕町字北佃45"}}, {"type": "Feature", "geometry": {"type": "Polygon", "coordinates": [[[134.612286, 33.951669], [134.605494, 33.984394], [134.58901, 33.967598], [134.611868, 33.950616], [134.612286, 33.951669]]]}, "properties": {"A27_001": "36203", "A27_002": "小松島市立", "A27_003": "B136220300077", "A27_004": "立江小学校", "A27_005": "小松島市立江町松本34-3"}}, {"type": "Feature", "geometry": {"type": "Polygon", "coordinates": [[[134.565962, 33.989697], [134.605653, 33.983168], [134.568497, 33.991541], [134.565962, 33.989697]]]}, "properties": {"A27_001": "36203", "A27_002": "小松島市立", "A27_003": "B136220300068", "A27_004": "芝田小学校", "A27_005": "小松島市田野町字中須45"}}, {"type": "Feature", "geometry": {"type": "Polygon", "coordinates": [[[134.557811, 34.012085], [134.547083, 33.987375], [134.557973, 34.012744], [134.557811, 34.012085]]]}, "properties": {"A27_001": "36203", "A27_002": "小松島市立", "A27_003": "B136220300059", "A27_004": "児安小学校", "A27_005": "小松島市田浦町字近里27"}}, {"type": "Feature", "geometry": {"type": "Polygon", "coordinates": [[[134.581984, 34.02273], [134.555827, 34.020377], [134.580119, 34.019536], [134.581984, 34.02273]]]}, "properties": {"A27_001": "36203", "A27_002": "小松島市立", "A27_003": "B136220300040", "A27_004": "千代小学校", "A27_005": "小松島市中田町字奥林29"}}, {"type": "Feature", "geometry": {"type": "Polygon", "coordinates": [[[134.581984, 34.02273], [134.600597, 34.017843], [134.582852, 34.022454], [134.581984, 34.02273]]]}, "properties": {"A27_001": "36203", "A27_002": "小松島市立", "A27_003": "B136220300031", "A27_004": "北小松島小学校", "A27_005": "小松島市中田町字浜田33"}}, {"type": "Feature", "geometry": {"type": "Polygon", "coordinates": [[[134.609895, 33.991005], [134.576655, 34.001756], [134.60923, 33.988471], [134.609895, 33.991005]]]}, "properties": {"A27_001": "36203", "A27_002": "小松島市立", "A27_003": "B136220300022", "A27_004": "南小松島小学校", "A27_005": "小松島市小松島町字高須36"}}, {"type": "Feature", "geometry": {"type": "Polygon", "coordinates": [[[134.591173, 34.006969], [134.570456, 34.005472], [134.588237, 34.008676], [134.591173, 34.006969]]]}, "properties": {"A27_001": "36203", "A27_002": "小松島市立", "A27_003": "B136220300013", "A27_004": "小松島小学校", "A27_005": "小松島市神田瀬町2-63"}}, {"type": "Feature", "geometry": {"type": "Polygon", "coordinates": [[[133.773281, 33.871837], [133.753695, 33.902274], [133.754503, 33.935543], [133.715869, 33.904322], [133.723012, 33.888643], [133.680164, 33.861231], [133.756525, 33.836464], [133.787693, 33.842483], [133.774131, 33.869679], [133.773281, 33.871837]]]}, "properties": {"A27_001": "36208", "A27_002": "三好市立", "A27_003": "B136220800116", "A27_004": "下名小学校", "A27_005": "三好市山城町下名1001-1"}}, {"type": "Feature", "geometry": {"type": "Polygon", "coordinates": [[[133.788359, 34.000374], [133.682049, 33.983508], [133.692566, 33.943991], [133.675684, 33.92638], [133.690517, 33.916291], [133.661036, 33.884123], [133.666411, 33.866011], [133.681303, 33.859169], [133.723012, 33.888643], [133.715869, 33.904322], [133.755837, 33.935529], [133.756482, 33.966675], [133.783206, 33.972659], [133.791603, 33.994045], [133.788359, 34.000374]]]}, "properties": {"A27_001": "36208", "A27_002": "三好市立", "A27_003": "B136220800107", "A27_004": "山城小学校", "A27_005": "三好市山城町大川持30-2"}}, {"type": "Feature", "geometry": {"type": "Polygon", "coordinates": [[[133.751822, 33.997406], [133.722009, 34.031401], [133.748633, 33.997968], [133.751822, 33.997406]]]}, "properties": {"A27_001": "36208", "A27_002": "三好市立", "A27_003": "B136220800072", "A27_004": "馬路小学校", "A27_005": "三好市池田町馬路立石33-1"}}, {"type": "Feature", "geometry": {"type": "MultiPolygon", "coordinates": [[[[133.719977, 33.992149], [133.720588, 34.022011], [133.679549, 34.01252], [133.675092, 33.983682], [133.716986, 33.989103], [133.719977, 33.992149]]], [[[133.775524, 34.074677], [133.722009, 34.031401], [133.781065, 34.062283], [133.775524, 34.074677]]], [[[133.755777, 34.026834], [133.75332, 33.984929], [133.792267, 34.02986], [133.758161, 34.029681], [133.755777, 34.026834]]], [[[133.763097, 33.969966], [133.784317, 33.934898], [133.841857, 33.961326], [133.767839, 33.970602], [133.763097, 33.969966]]]]}, "properties": {"A27_001": "36208", "A27_002": "三好市立", "A27_003": "B136220800063", "A27_004": "白地小学校", "A27_005": "三好市池田町白地本名57"}}, {"type": "Feature", "geometry": {"type": "MultiPolygon", "coordinates": [[[[133.828122, 34.029527], [133.79288594880188, 34.05583546644237], [133.74934, 34.033017], [133.791438, 34.03113], [133.812566, 33.988697], [133.828088, 34.028066], [133.828122, 34.029527]]], [[[133.719977, 33.992149], [133.720588, 34.022011], [133.679549, 34.01252], [133.675092, 33.983682], [133.716986, 33.989103], [133.719977, 33.992149]]], [[[133.763097, 33.969966], [133.784317, 33.934898], [133.841857, 33.961326], [133.767839, 33.970602], [133.763097, 33.969966]]]]}, "properties": {"A27_001": "36208", "A27_002": "三好市立", "A27_003": "B136220800054", "A27_004": "池田小学校", "A27_005": "三好市池田町ウエノ2379-4"}}, {"type": "Feature", "geometry": {"type": "Polygon", "coordinates": [[[133.852354, 34.034992], [133.822838, 34.074103], [133.778259, 34.079341], [133.78348, 34.054334], [133.83667, 34.032832], [133.852354, 34.034992]]]}, "properties": {"A27_001": "36208", "A27_002": "三好市立", "A27_003": "B136220800045", "A27_004": "箸蔵小学校", "A27_005": "三好市池田町州津井関1208"}}, {"type": "Feature", "geometry": {"type": "Polygon", "coordinates": [[[133.97742967375285, 34.07499144254882], [133.939116, 34.115396], [133.898915, 34.096925], [133.923619, 34.050044], [133.982589, 34.04125], [133.97815, 34.07317], [133.97742967375285, 34.07499144254882]]]}, "properties": {"A27_001": "36208", "A27_002": "三好市立", "A27_003": "B136220800027", "A27_004": "芝生小学校", "A27_005": "三好市三野町芝生1230"}}, {"type": "Feature", "geometry": {"type": "Polygon", "coordinates": [[[133.999633, 34.074787], [133.995254, 34.036532], [134.000526, 34.071729], [133.999633, 34.074787]]]}, "properties": {"A27_001": "36208", "A27_002": "三好市立", "A27_003": "B136220800018", "A27_004": "王地小学校", "A27_005": "三好市三野町加茂野宮1393"}}, {"type": "Feature", "geometry": {"type": "Polygon", "coordinates": [[[133.788359, 34.000374], [133.800033, 33.979167], [133.842066, 33.99518], [133.78367, 34.011199], [133.788359, 34.000374]]]}, "properties": {"A27_001": "36208", "A27_002": "三好市立", "A27_003": "B136220800081", "A27_004": "三縄小学校", "A27_005": "三好市池田町中西イバ508-1"}}]}